*******************************************************************************
Ephemeris / WWW_USER Mon Mar 10 14:37:10 2025 Pasadena, USA      / Horizons    
*******************************************************************************
Target body name: 468861 (2013 LU28)              {source: JPL#36}
Center body name: Earth (399)                     {source: DE441}
Center-site name: Mauna Kea
*******************************************************************************
Start time      : A.D. 2018-Nov-21 03:51:00.0000 UT      
Stop  time      : A.D. 2018-Nov-21 16:24:00.0000 UT      
Step-size       : 1 minutes
*******************************************************************************
Target pole/equ : undefined
Target radii    : undefined                                                    
Center geodetic : 204.5278, 19.8260847, 4.21024   {E-lon(deg),Lat(deg),Alt(km)}
Center cylindric: 204.5278, 6006.35451, 2151.0229 {E-lon(deg),Dxy(km),Dz(km)}
Center pole/equ : ITRF93                          {East-longitude positive}
Center radii    : 6378.137, 6378.137, 6356.752 km {Equator_a, b, pole_c}       
Target primary  : Sun
Vis. interferer : MOON (R_eq= 1737.400) km        {source: DE441}
Rel. light bend : Sun                             {source: DE441}
Rel. lght bnd GM: 1.3271E+11 km^3/s^2                                          
Small-body perts: Yes                             {source: SB441-N16}
Atmos refraction: NO (AIRLESS)
RA format       : HMS
Time format     : CAL 
Calendar mode   : Mixed Julian/Gregorian
RTS-only print  : NO       
EOP file        : eop.250307.p250603                                           
EOP coverage    : DATA-BASED 1962-JAN-20 TO 2025-MAR-07. PREDICTS-> 2025-JUN-02
Units conversion: 1 au= 149597870.700 km, c= 299792.458 km/s, 1 day= 86400.0 s 
Table cut-offs 1: Elevation (-90.0deg=NO ),Airmass (>38.000=NO), Daylight (YES)
Table cut-offs 2: Solar elongation (  0.0,180.0=NO ),Local Hour Angle( 0.0=NO )
Table cut-offs 3: RA/DEC angular rate (     0.0=NO )                           
*******************************************************************************
Initial IAU76/J2000 heliocentric ecliptic osculating elements (au, days, deg.):
  EPOCH=  2459491.5 ! 2021-Oct-04.00 (TDB)         Residual RMS= .14077        
   EC= .9545524767334098   QR= 8.741840911970645   TP= 2460480.7801673855      
   OM= 275.9923561772391   W=  152.9171912923278   IN= 125.3473013584344       
  Equivalent ICRF heliocentric cartesian coordinates (au, au/d):
   X=-6.020062670108302E+00  Y=-1.182282064265113E+00  Z= 8.330249486138040E+00
  VX= 2.086988006100027E-03 VY= 7.079392581348984E-03 VZ=-1.092497303529149E-03
Asteroid physical parameters (km, seconds, rotational period in hours):        
   GM= n.a.                RAD= n.a.               ROTPER= n.a.                
   H= 8.24                 G= .150                 B-V= n.a.                   
                           ALBEDO= n.a.            STYP= n.a.                  
*******************************************************************************
 Date__(UT)__HR:MN     R.A._________(ICRF)_________DEC
******************************************************
$$SOE
 2018-Nov-21 03:51 Cm  15 13 32.739773 +34 14 02.76443
 2018-Nov-21 03:52 Cm  15 13 32.750141 +34 14 02.78829
 2018-Nov-21 03:53 Cm  15 13 32.760510 +34 14 02.81214
 2018-Nov-21 03:54 Cm  15 13 32.770880 +34 14 02.83600
 2018-Nov-21 03:55 Cm  15 13 32.781251 +34 14 02.85987
 2018-Nov-21 03:56 Cm  15 13 32.791622 +34 14 02.88373
 2018-Nov-21 03:57 Cm  15 13 32.801995 +34 14 02.90760
 2018-Nov-21 03:58 Cm  15 13 32.812368 +34 14 02.93147
 2018-Nov-21 03:59 Cm  15 13 32.822743 +34 14 02.95534
 2018-Nov-21 04:00 Cm  15 13 32.833118 +34 14 02.97921
 2018-Nov-21 04:01 Cm  15 13 32.843494 +34 14 03.00309
 2018-Nov-21 04:02 Cm  15 13 32.853870 +34 14 03.02697
 2018-Nov-21 04:03 Cm  15 13 32.864248 +34 14 03.05085
 2018-Nov-21 04:04 Cm  15 13 32.874627 +34 14 03.07473
 2018-Nov-21 04:05 Nm  15 13 32.885006 +34 14 03.09861
 2018-Nov-21 04:06 Nm  15 13 32.895386 +34 14 03.12250
 2018-Nov-21 04:07 Nm  15 13 32.905768 +34 14 03.14639
 2018-Nov-21 04:08 Nm  15 13 32.916150 +34 14 03.17028
 2018-Nov-21 04:09 Nm  15 13 32.926532 +34 14 03.19418
 2018-Nov-21 04:10 Nm  15 13 32.936916 +34 14 03.21808
 2018-Nov-21 04:11 Nm  15 13 32.947301 +34 14 03.24198
 2018-Nov-21 04:12 Nm  15 13 32.957686 +34 14 03.26588
 2018-Nov-21 04:13 Nm  15 13 32.968072 +34 14 03.28978
 2018-Nov-21 04:14 Nm  15 13 32.978460 +34 14 03.31369
 2018-Nov-21 04:15 Nm  15 13 32.988848 +34 14 03.33760
 2018-Nov-21 04:16 Nm  15 13 32.999236 +34 14 03.36151
 2018-Nov-21 04:17 Nm  15 13 33.009626 +34 14 03.38543
 2018-Nov-21 04:18 Nm  15 13 33.020017 +34 14 03.40935
 2018-Nov-21 04:19 Nm  15 13 33.030408 +34 14 03.43327
 2018-Nov-21 04:20 Nm  15 13 33.040800 +34 14 03.45719
 2018-Nov-21 04:21 Nm  15 13 33.051193 +34 14 03.48112
 2018-Nov-21 04:22 Nm  15 13 33.061587 +34 14 03.50505
 2018-Nov-21 04:23 Nm  15 13 33.071982 +34 14 03.52898
 2018-Nov-21 04:24 Nm  15 13 33.082378 +34 14 03.55291
 2018-Nov-21 04:25 Nm  15 13 33.092774 +34 14 03.57685
 2018-Nov-21 04:26 Nm  15 13 33.103172 +34 14 03.60079
 2018-Nov-21 04:27 Nm  15 13 33.113570 +34 14 03.62474
 2018-Nov-21 04:28 Nm  15 13 33.123969 +34 14 03.64868
 2018-Nov-21 04:29 Nm  15 13 33.134369 +34 14 03.67263
 2018-Nov-21 04:30 Nm  15 13 33.144769 +34 14 03.69658
 2018-Nov-21 04:31 Nm  15 13 33.155171 +34 14 03.72054
 2018-Nov-21 04:32 Am  15 13 33.165573 +34 14 03.74450
 2018-Nov-21 04:33 Am  15 13 33.175977 +34 14 03.76846
 2018-Nov-21 04:34 Am  15 13 33.186381 +34 14 03.79242
 2018-Nov-21 04:35 Am  15 13 33.196786 +34 14 03.81639
 2018-Nov-21 04:36 Am  15 13 33.207191 +34 14 03.84036
 2018-Nov-21 04:37 Am  15 13 33.217598 +34 14 03.86434
 2018-Nov-21 04:38 Am  15 13 33.228005 +34 14 03.88832
 2018-Nov-21 04:39 Am  15 13 33.238414 +34 14 03.91230
 2018-Nov-21 04:40 Am  15 13 33.248823 +34 14 03.93628
 2018-Nov-21 04:41 Am  15 13 33.259233 +34 14 03.96027
 2018-Nov-21 04:42 Am  15 13 33.269643 +34 14 03.98426
 2018-Nov-21 04:43 Am  15 13 33.280055 +34 14 04.00825
 2018-Nov-21 04:44 Am  15 13 33.290467 +34 14 04.03225
 2018-Nov-21 04:45 Am  15 13 33.300880 +34 14 04.05625
 2018-Nov-21 04:46 Am  15 13 33.311295 +34 14 04.08025
 2018-Nov-21 04:47 As  15 13 33.321709 +34 14 04.10426
 2018-Nov-21 04:48 Am  15 13 33.332125 +34 14 04.12827
 2018-Nov-21 04:49 Am  15 13 33.342542 +34 14 04.15229
 2018-Nov-21 04:50 Am  15 13 33.352959 +34 14 04.17631
 2018-Nov-21 04:51 Am  15 13 33.363377 +34 14 04.20033
 2018-Nov-21 04:52 Am  15 13 33.373796 +34 14 04.22435
 2018-Nov-21 04:53 Am  15 13 33.384216 +34 14 04.24838
 2018-Nov-21 04:54 Am  15 13 33.394637 +34 14 04.27242
 2018-Nov-21 04:55 Am  15 13 33.405058 +34 14 04.29645
 2018-Nov-21 04:56 Am  15 13 33.415480 +34 14 04.32049
 2018-Nov-21 04:57 Am  15 13 33.425903 +34 14 04.34454
 2018-Nov-21 04:58 Am  15 13 33.436327 +34 14 04.36858
 2018-Nov-21 04:59  m  15 13 33.446752 +34 14 04.39263
 2018-Nov-21 05:00  m  15 13 33.457177 +34 14 04.41669
 2018-Nov-21 05:01  m  15 13 33.467604 +34 14 04.44075
 2018-Nov-21 05:02  m  15 13 33.478031 +34 14 04.46481
 2018-Nov-21 05:03  m  15 13 33.488459 +34 14 04.48888
 2018-Nov-21 05:04  m  15 13 33.498887 +34 14 04.51295
 2018-Nov-21 05:05  m  15 13 33.509317 +34 14 04.53702
 2018-Nov-21 05:06  m  15 13 33.519747 +34 14 04.56110
 2018-Nov-21 05:07  m  15 13 33.530178 +34 14 04.58518
 2018-Nov-21 05:08  m  15 13 33.540610 +34 14 04.60927
 2018-Nov-21 05:09  m  15 13 33.551043 +34 14 04.63336
 2018-Nov-21 05:10  m  15 13 33.561477 +34 14 04.65745
 2018-Nov-21 05:11  m  15 13 33.571911 +34 14 04.68155
 2018-Nov-21 05:12  m  15 13 33.582346 +34 14 04.70565
 2018-Nov-21 05:13  m  15 13 33.592782 +34 14 04.72976
 2018-Nov-21 05:14  m  15 13 33.603218 +34 14 04.75387
 2018-Nov-21 05:15  m  15 13 33.613656 +34 14 04.77798
 2018-Nov-21 05:16  m  15 13 33.624094 +34 14 04.80210
 2018-Nov-21 05:17  m  15 13 33.634533 +34 14 04.82622
 2018-Nov-21 05:18  m  15 13 33.644973 +34 14 04.85035
 2018-Nov-21 05:19  m  15 13 33.655414 +34 14 04.87448
 2018-Nov-21 05:20  m  15 13 33.665855 +34 14 04.89862
 2018-Nov-21 05:21  m  15 13 33.676297 +34 14 04.92276
 2018-Nov-21 05:22  m  15 13 33.686740 +34 14 04.94690
 2018-Nov-21 05:23  m  15 13 33.697184 +34 14 04.97105
 2018-Nov-21 05:24  m  15 13 33.707628 +34 14 04.99520
 2018-Nov-21 05:25  m  15 13 33.718073 +34 14 05.01936
 2018-Nov-21 05:26  m  15 13 33.728519 +34 14 05.04352
 2018-Nov-21 05:27  m  15 13 33.738966 +34 14 05.06769
 2018-Nov-21 05:28  m  15 13 33.749414 +34 14 05.09186
 2018-Nov-21 05:29  m  15 13 33.759862 +34 14 05.11604
 2018-Nov-21 05:30  m  15 13 33.770311 +34 14 05.14022
 2018-Nov-21 05:31  m  15 13 33.780761 +34 14 05.16440
 2018-Nov-21 05:32  m  15 13 33.791211 +34 14 05.18859
 2018-Nov-21 05:33  m  15 13 33.801663 +34 14 05.21278
 2018-Nov-21 05:34  m  15 13 33.812115 +34 14 05.23698
 2018-Nov-21 05:35  m  15 13 33.822568 +34 14 05.26118
 2018-Nov-21 05:36  m  15 13 33.833021 +34 14 05.28539
 2018-Nov-21 05:37  m  15 13 33.843475 +34 14 05.30960
 2018-Nov-21 05:38  m  15 13 33.853930 +34 14 05.33382
 2018-Nov-21 05:39  m  15 13 33.864386 +34 14 05.35804
 2018-Nov-21 05:40  m  15 13 33.874843 +34 14 05.38227
 2018-Nov-21 05:41  m  15 13 33.885300 +34 14 05.40650
 2018-Nov-21 05:42  m  15 13 33.895758 +34 14 05.43073
 2018-Nov-21 05:43  m  15 13 33.906217 +34 14 05.45497
 2018-Nov-21 05:44  m  15 13 33.916676 +34 14 05.47922
 2018-Nov-21 05:45  m  15 13 33.927137 +34 14 05.50347
 2018-Nov-21 05:46  m  15 13 33.937598 +34 14 05.52772
 2018-Nov-21 05:47  m  15 13 33.948059 +34 14 05.55198
 2018-Nov-21 05:48  m  15 13 33.958522 +34 14 05.57625
 2018-Nov-21 05:49  m  15 13 33.968985 +34 14 05.60052
 2018-Nov-21 05:50  m  15 13 33.979449 +34 14 05.62479
 2018-Nov-21 05:51  m  15 13 33.989913 +34 14 05.64907
 2018-Nov-21 05:52  m  15 13 34.000379 +34 14 05.67336
 2018-Nov-21 05:53  m  15 13 34.010845 +34 14 05.69765
